NORAD_CAT_ID,OBJECT_NAME,OBJECT_TYPE,EPOCH,MEAN_MOTION,ECCENTRICITY,INCLINATION,RA_OF_ASC_NODE,ARG_OF_PERICENTER,MEAN_ANOMALY,BSTAR,MEAN_MOTION_DOT,MEAN_MOTION_DDOT,TLE_LINE0,TLE_LINE1,TLE_LINE2,SEMIMAJOR_AXIS,PERIOD,APOGEE,PERIGEE,DECAYED
52103.0,STARLINK-3705,PAYLOAD,2024-08-14 10:56:11,15.08875297,0.0001749,53.2147,127.9805,79.2106,280.9083,0.0044861,0.00071907,0.0,0 STARLINK-3705,1 52103U 22029R   24227.45568943  .00071907  00000-0  44861-2 0  9996,2 52103  53.2147 127.9805 0001749  79.2106 280.9083 15.08875297134395,6917.773,95.435,540.847,538.428,0.0
52103.0,STARLINK-3705,PAYLOAD,2024-08-14 22:03:53,15.0884018,5.08e-05,53.2148,125.8983,111.8453,248.2594,0.0021513,0.00034116,0.0,0 STARLINK-3705,1 52103U 22029R   24227.91936778  .00034116  00000-0  21513-2 0  9992,2 52103  53.2148 125.8983 0000508 111.8453 248.2594 15.08840180134465,6917.88,95.438,540.096,539.393,0.0
52103.0,STARLINK-3705,PAYLOAD,2024-08-15 04:25:26,15.08809264,0.0001029,53.2145,124.7102,78.1053,282.0055,0.001546,0.00024381,0.0,0 STARLINK-3705,1 52103U 22029R   24228.18433599  .00024381  00000-0  15460-2 0  9992,2 52103  53.2145 124.7102 0001029  78.1053 282.0055 15.08809264134504,6917.974,95.439,540.551,539.127,0.0
52103.0,STARLINK-3705,PAYLOAD,2024-08-15 10:46:59,15.08836836,0.0001294,53.2163,123.5187,95.5935,264.5204,0.0022534,0.00035754,0.0,0 STARLINK-3705,1 52103U 22029R   24228.44929684  .00035754  00000-0  22534-2 0  9992,2 52103  53.2163 123.5187 0001294  95.5935 264.5204 15.08836836134540,6917.89,95.438,540.65,538.86,0.0
52103.0,STARLINK-3705,PAYLOAD,2024-08-15 23:30:03,15.08891958,0.0001063,53.2149,121.1421,86.6303,273.481,0.0028455,0.00045354,0.0,0 STARLINK-3705,1 52103U 22029R   24228.97920628  .00045354  00000-0  28455-2 0  9994,2 52103  53.2149 121.1421 0001063  86.6303 273.4810 15.08891958134620,6917.722,95.434,540.322,538.851,0.0
52103.0,STARLINK-3705,PAYLOAD,2024-08-16 21:45:26,15.08898567,0.000151,53.2143,116.9765,150.5003,209.6075,0.0031526,0.00050325,0.0,0 STARLINK-3705,1 52103U 22029R   24229.90655326  .00050325  00000-0  31526-2 0  9995,2 52103  53.2143 116.9765 0001510 150.5003 209.6075 15.08898567134764,6917.701,95.434,540.611,538.522,0.0
52103.0,STARLINK-3705,PAYLOAD,2024-08-17 04:06:58,15.08870557,0.0001423,53.2153,115.7896,74.2105,285.9044,0.00066203,0.00010273,0.0,0 STARLINK-3705,1 52103U 22029R   24230.17151324  .00010273  00000-0  66203-3 0  9994,2 52103  53.2153 115.7896 0001423  74.2105 285.9044 15.08870557134802,6917.787,95.436,540.636,538.668,0.0
52103.0,STARLINK-3705,PAYLOAD,2024-08-17 16:50:04,15.08832039,0.0001351,53.2148,113.4079,110.3378,249.7759,-4.8906e-05,-1.066e-05,0.0,0 STARLINK-3705,1 52103U 22029R   24230.70143594 -.00001066  00000-0 -48906-4 0  9996,2 52103  53.2148 113.4079 0001351 110.3378 249.7759 15.08832039134880,6917.905,95.438,540.704,538.835,0.0
52103.0,STARLINK-3705,PAYLOAD,2024-08-18 19:51:37,15.08858376,0.0001551,53.2149,108.3525,114.0764,246.039,0.00068221,0.00010591,0.0,0 STARLINK-3705,1 52103U 22029R   24231.82751159  .00010591  00000-0  68221-3 0  9994,2 52103  53.2149 108.3525 0001551 114.0764 246.0390 15.08858376135055,6917.824,95.436,540.762,538.616,0.0
52103.0,STARLINK-3705,PAYLOAD,2024-08-18 21:27:00,15.08864182,0.0001472,53.2152,108.0562,108.7745,251.3407,0.00090008,0.00014075,0.0,0 STARLINK-3705,1 52103U 22029R   24231.89375090  .00014075  00000-0  90008-3 0  9996,2 52103  53.2152 108.0562 0001472 108.7745 251.3407 15.08864182135069,6917.806,95.436,540.69,538.653,0.0
52103.0,STARLINK-3705,PAYLOAD,2024-08-19 02:13:08,15.08882748,0.0001242,53.2153,107.1658,105.1545,254.9584,0.0012698,0.00020002,0.0,0 STARLINK-3705,1 52103U 22029R   24232.09246472  .00020002  00000-0  12698-2 0  9995,2 52103  53.2153 107.1658 0001242 105.1545 254.9584 15.08882748135096,6917.75,95.435,540.474,538.756,0.0
52103.0,STARLINK-3705,PAYLOAD,2024-08-19 08:34:41,15.08871248,0.0001706,53.215,105.9764,87.8617,272.2571,-0.00080483,-0.00013085,0.0,0 STARLINK-3705,1 52103U 22029R   24232.35742694 -.00013085  00000-0 -80483-3 0  9994,2 52103  53.2150 105.9764 0001706  87.8617 272.2571 15.08871248135135,6917.785,95.436,540.83,538.47,0.0
52103.0,STARLINK-3705,PAYLOAD,2024-08-20 02:03:57,15.08827521,0.000136,53.215,102.7053,78.6517,281.4627,0.0013487,0.00021234,0.0,0 STARLINK-3705,1 52103U 22029R   24233.08607772  .00021234  00000-0  13487-2 0  9994,2 52103  53.2150 102.7053 0001360  78.6517 281.4627 15.08827521135245,6917.919,95.438,540.724,538.843,0.0
52103.0,STARLINK-3705,PAYLOAD,2024-08-20 08:25:29,15.08837357,0.0001332,53.215,101.515,81.9415,278.1728,0.0013322,0.00020976,0.0,0 STARLINK-3705,1 52103U 22029R   24233.35103868  .00020976  00000-0  13322-2 0  9991,2 52103  53.2150 101.5150 0001332  81.9415 278.1728 15.08837357135280,6917.888,95.438,540.675,538.832,0.0
52103.0,STARLINK-3705,PAYLOAD,2024-08-20 22:43:57,15.08859438,0.0001389,53.215,98.8385,80.9467,279.1682,0.0012601,0.00019834,0.0,0 STARLINK-3705,1 52103U 22029R   24233.94719557  .00019834  00000-0  12601-2 0  9994,2 52103  53.2150  98.8385 0001389  80.9467 279.1682 15.08859438135370,6917.821,95.436,540.647,538.725,0.0
52103.0,STARLINK-3705,PAYLOAD,2024-08-21 20:59:21,15.08851272,0.0001456,53.2142,94.6759,84.0109,276.1049,0.0013288,0.0002093,0.0,0 STARLINK-3705,1 52103U 22029R   24234.87455905  .00020930  00000-0  13288-2 0  9992,2 52103  53.2142  94.6759 0001456  84.0109 276.1049 15.08851272135511,6917.846,95.437,540.718,538.704,0.0
